ONEWEB-0579             
1 56068U 23043Y   26073.54858079  .00000113  00000+0  24155-3 0  9995
2 56068  87.9170 262.8313 0001811 101.1038 259.0300 13.21827231145749
ONEWEB-0581             
1 56069U 23043Z   26073.45805432  .00000127  00000+0  29854-3 0  9997
2 56069  87.9008 247.6214 0001092 102.0141 258.1112 13.16595357146496
ONEWEB-0609             
1 56070U 23043AA  26073.56844454  .00000047  00000+0  91922-4 0  9995
2 56070  87.8930 278.1081 0001713  89.0031 271.1295 13.15548020143997
ONEWEB-0613             
1 56071U 23043AB  26073.56369365  .00000143  00000+0  34453-3 0  9991
2 56071  87.8933 278.1200 0001828  96.3392 263.7946 13.15548106143997
ONEWEB-0630             
1 56072U 23043AC  26073.55893875  .00000154  00000+0  37526-3 0  9995
2 56072  87.8934 278.0906 0001779  96.4757 263.6576 13.15548516143984
ONEWEB-0632             
1 56073U 23043AD  26073.55418712  .00000181  00000+0  44704-3 0  9995
2 56073  87.8933 278.1090 0001463  94.4230 265.7068 13.15547789143983
ONEWEB-0633             
1 56074U 23043AE  26073.62390435  .00000136  00000+0  32624-3 0  9993
2 56074  87.8941 278.0632 0002055  95.0730 265.0635 13.15547956143972
ONEWEB-0634             
1 56075U 23043AF  26073.60962815 -.00000781  00000+0 -21089-2 0  9999
2 56075  87.8930 278.1141 0001865  81.6427 278.4915 13.15550632143962
ONEWEB-0635             
1 56076U 23043AG  26073.60488448 -.00000094  00000+0 -28401-3 0  9998
2 56076  87.8942 278.0691 0001342  92.8697 267.2587 13.15547856143996
ONEWEB-0636             
1 56077U 23043AH  26073.52090434 -.00000107  00000+0 -31918-3 0  9996
2 56077  87.8933 278.0997 0001430  92.5781 267.5513 13.15548294143961
ONEWEB-0637             
1 56078U 23043AJ  26073.59062756 -.00000079  00000+0 -24421-3 0  9999
2 56078  87.8934 278.1034 0001424  80.1103 280.0188 13.15548688143998
ONEWEB-0647             
1 56079U 23043AK  26073.58587449 -.00000080  00000+0 -24727-3 0  9991
2 56079  87.8934 278.1170 0001581  95.2139 264.9172 13.15548038143982
ONEWEB-0651             
1 56080U 23043AL  26073.58112058 -.00000148  00000+0 -42816-3 0  9997
2 56080  87.8932 278.1129 0001345  87.1536 272.9748 13.15547955145184
ONEWEB-0718             
1 56081U 23043AM  26073.57636710 -.00000044  00000+0 -14975-3 0  9993
2 56081  87.8933 278.0944 0002001  78.6318 281.5037 13.15548339143994
ONEWEB-0561             
1 56710U 23068A   26073.57754023  .00000315  00000+0  74214-3 0  9998
2 56710  87.9158 293.3349 0001400  97.9538 262.1754 13.20771865137017
ONEWEB-0668             
1 56711U 23068B   26073.50870805  .00001058  00000+0  27342-2 0  9993
2 56711  87.9027 247.5945 0001689  75.8881 284.2438 13.16603130139325
