[{"OBJECT_NAME":"ONEWEB-0579","OBJECT_ID":"2023-043Y","EPOCH":"2026-03-14T13:09:57.380256","MEAN_MOTION":13.21827231,"ECCENTRICITY":0.00018118,"INCLINATION":87.917,"RA_OF_ASC_NODE":262.8313,"ARG_OF_PERICENTER":101.1038,"MEAN_ANOMALY":259.03,"EPHEMERIS_TYPE":0,"CLASSIFICATION_TYPE":"U","NORAD_CAT_ID":56068,"ELEMENT_SET_NO":999,"REV_AT_EPOCH":14574,"BSTAR":0.00024154989,"MEAN_MOTION_DOT":1.13e-6,"MEAN_MOTION_DDOT":0},{"OBJECT_NAME":"ONEWEB-0581","OBJECT_ID":"2023-043Z","EPOCH":"2026-03-14T10:59:35.893248","MEAN_MOTION":13.16595357,"ECCENTRICITY":0.00010923,"INCLINATION":87.9008,"RA_OF_ASC_NODE":247.6214,"ARG_OF_PERICENTER":102.0141,"MEAN_ANOMALY":258.1112,"EPHEMERIS_TYPE":0,"CLASSIFICATION_TYPE":"U","NORAD_CAT_ID":56069,"ELEMENT_SET_NO":999,"REV_AT_EPOCH":14649,"BSTAR":0.00029854267,"MEAN_MOTION_DOT":1.27e-6,"MEAN_MOTION_DDOT":0},{"OBJECT_NAME":"ONEWEB-0609","OBJECT_ID":"2023-043AA","EPOCH":"2026-03-14T13:38:33.608256","MEAN_MOTION":13.1554802,"ECCENTRICITY":0.00017137,"INCLINATION":87.893,"RA_OF_ASC_NODE":278.1081,"ARG_OF_PERICENTER":89.0031,"MEAN_ANOMALY":271.1295,"EPHEMERIS_TYPE":0,"CLASSIFICATION_TYPE":"U","NORAD_CAT_ID":56070,"ELEMENT_SET_NO":999,"REV_AT_EPOCH":14399,"BSTAR":9.1921697e-5,"MEAN_MOTION_DOT":4.7e-7,"MEAN_MOTION_DDOT":0},{"OBJECT_NAME":"ONEWEB-0613","OBJECT_ID":"2023-043AB","EPOCH":"2026-03-14T13:31:43.131360","MEAN_MOTION":13.15548106,"ECCENTRICITY":0.00018288,"INCLINATION":87.8933,"RA_OF_ASC_NODE":278.12,"ARG_OF_PERICENTER":96.3392,"MEAN_ANOMALY":263.7946,"EPHEMERIS_TYPE":0,"CLASSIFICATION_TYPE":"U","NORAD_CAT_ID":56071,"ELEMENT_SET_NO":999,"REV_AT_EPOCH":14399,"BSTAR":0.00034453375,"MEAN_MOTION_DOT":1.43e-6,"MEAN_MOTION_DDOT":0},{"OBJECT_NAME":"ONEWEB-0630","OBJECT_ID":"2023-043AC","EPOCH":"2026-03-14T13:24:52.308000","MEAN_MOTION":13.15548516,"ECCENTRICITY":0.00017792,"INCLINATION":87.8934,"RA_OF_ASC_NODE":278.0906,"ARG_OF_PERICENTER":96.4757,"MEAN_ANOMALY":263.6576,"EPHEMERIS_TYPE":0,"CLASSIFICATION_TYPE":"U","NORAD_CAT_ID":56072,"ELEMENT_SET_NO":999,"REV_AT_EPOCH":14398,"BSTAR":0.00037526435,"MEAN_MOTION_DOT":1.54e-6,"MEAN_MOTION_DDOT":0},{"OBJECT_NAME":"ONEWEB-0632","OBJECT_ID":"2023-043AD","EPOCH":"2026-03-14T13:18:01.767168","MEAN_MOTION":13.15547789,"ECCENTRICITY":0.00014634,"INCLINATION":87.8933,"RA_OF_ASC_NODE":278.109,"ARG_OF_PERICENTER":94.423,"MEAN_ANOMALY":265.7068,"EPHEMERIS_TYPE":0,"CLASSIFICATION_TYPE":"U","NORAD_CAT_ID":56073,"ELEMENT_SET_NO":999,"REV_AT_EPOCH":14398,"BSTAR":0.00044704247,"MEAN_MOTION_DOT":1.81e-6,"MEAN_MOTION_DDOT":0},{"OBJECT_NAME":"ONEWEB-0633","OBJECT_ID":"2023-043AE","EPOCH":"2026-03-14T14:58:25.335840","MEAN_MOTION":13.15547956,"ECCENTRICITY":0.00020557,"INCLINATION":87.8941,"RA_OF_ASC_NODE":278.0632,"ARG_OF_PERICENTER":95.073,"MEAN_ANOMALY":265.0635,"EPHEMERIS_TYPE":0,"CLASSIFICATION_TYPE":"U","NORAD_CAT_ID":56074,"ELEMENT_SET_NO":999,"REV_AT_EPOCH":14397,"BSTAR":0.00032624097,"MEAN_MOTION_DOT":1.36e-6,"MEAN_MOTION_DDOT":0},{"OBJECT_NAME":"ONEWEB-0634","OBJECT_ID":"2023-043AF","EPOCH":"2026-03-14T14:37:51.872160","MEAN_MOTION":13.15550632,"ECCENTRICITY":0.00018653,"INCLINATION":87.893,"RA_OF_ASC_NODE":278.1141,"ARG_OF_PERICENTER":81.6427,"MEAN_ANOMALY":278.4915,"EPHEMERIS_TYPE":0,"CLASSIFICATION_TYPE":"U","NORAD_CAT_ID":56075,"ELEMENT_SET_NO":999,"REV_AT_EPOCH":14396,"BSTAR":-0.0021088745,"MEAN_MOTION_DOT":-7.81e-6,"MEAN_MOTION_DDOT":0},{"OBJECT_NAME":"ONEWEB-0635","OBJECT_ID":"2023-043AG","EPOCH":"2026-03-14T14:31:02.019072","MEAN_MOTION":13.15547856,"ECCENTRICITY":0.00013427,"INCLINATION":87.8942,"RA_OF_ASC_NODE":278.0691,"ARG_OF_PERICENTER":92.8697,"MEAN_ANOMALY":267.2587,"EPHEMERIS_TYPE":0,"CLASSIFICATION_TYPE":"U","NORAD_CAT_ID":56076,"ELEMENT_SET_NO":999,"REV_AT_EPOCH":14399,"BSTAR":-0.00028401453,"MEAN_MOTION_DOT":-9.4e-7,"MEAN_MOTION_DDOT":0},{"OBJECT_NAME":"ONEWEB-0636","OBJECT_ID":"2023-043AH","EPOCH":"2026-03-14T12:30:06.134976","MEAN_MOTION":13.15548294,"ECCENTRICITY":0.00014305,"INCLINATION":87.8933,"RA_OF_ASC_NODE":278.0997,"ARG_OF_PERICENTER":92.5781,"MEAN_ANOMALY":267.5513,"EPHEMERIS_TYPE":0,"CLASSIFICATION_TYPE":"U","NORAD_CAT_ID":56077,"ELEMENT_SET_NO":999,"REV_AT_EPOCH":14396,"BSTAR":-0.00031918062,"MEAN_MOTION_DOT":-1.07e-6,"MEAN_MOTION_DDOT":0},{"OBJECT_NAME":"ONEWEB-0637","OBJECT_ID":"2023-043AJ","EPOCH":"2026-03-14T14:10:30.221184","MEAN_MOTION":13.15548688,"ECCENTRICITY":0.00014245,"INCLINATION":87.8934,"RA_OF_ASC_NODE":278.1034,"ARG_OF_PERICENTER":80.1103,"MEAN_ANOMALY":280.0188,"EPHEMERIS_TYPE":0,"CLASSIFICATION_TYPE":"U","NORAD_CAT_ID":56078,"ELEMENT_SET_NO":999,"REV_AT_EPOCH":14399,"BSTAR":-0.00024421074,"MEAN_MOTION_DOT":-7.9e-7,"MEAN_MOTION_DDOT":0},{"OBJECT_NAME":"ONEWEB-0647","OBJECT_ID":"2023-043AK","EPOCH":"2026-03-14T14:03:39.555936","MEAN_MOTION":13.15548038,"ECCENTRICITY":0.00015817,"INCLINATION":87.8934,"RA_OF_ASC_NODE":278.117,"ARG_OF_PERICENTER":95.2139,"MEAN_ANOMALY":264.9172,"EPHEMERIS_TYPE":0,"CLASSIFICATION_TYPE":"U","NORAD_CAT_ID":56079,"ELEMENT_SET_NO":999,"REV_AT_EPOCH":14398,"BSTAR":-0.00024727024,"MEAN_MOTION_DOT":-8.0e-7,"MEAN_MOTION_DDOT":0},{"OBJECT_NAME":"ONEWEB-0651","OBJECT_ID":"2023-043AL","EPOCH":"2026-03-14T13:56:48.818112","MEAN_MOTION":13.15547955,"ECCENTRICITY":0.00013455,"INCLINATION":87.8932,"RA_OF_ASC_NODE":278.1129,"ARG_OF_PERICENTER":87.1536,"MEAN_ANOMALY":272.9748,"EPHEMERIS_TYPE":0,"CLASSIFICATION_TYPE":"U","NORAD_CAT_ID":56080,"ELEMENT_SET_NO":999,"REV_AT_EPOCH":14518,"BSTAR":-0.00042815558,"MEAN_MOTION_DOT":-1.48e-6,"MEAN_MOTION_DDOT":0},{"OBJECT_NAME":"ONEWEB-0718","OBJECT_ID":"2023-043AM","EPOCH":"2026-03-14T13:49:58.117440","MEAN_MOTION":13.15548339,"ECCENTRICITY":0.0002001,"INCLINATION":87.8933,"RA_OF_ASC_NODE":278.0944,"ARG_OF_PERICENTER":78.6318,"MEAN_ANOMALY":281.5037,"EPHEMERIS_TYPE":0,"CLASSIFICATION_TYPE":"U","NORAD_CAT_ID":56081,"ELEMENT_SET_NO":999,"REV_AT_EPOCH":14399,"BSTAR":-0.00014975352,"MEAN_MOTION_DOT":-4.4e-7,"MEAN_MOTION_DDOT":0},{"OBJECT_NAME":"ONEWEB-0561","OBJECT_ID":"2023-068A","EPOCH":"2026-03-14T13:51:39.475872","MEAN_MOTION":13.20771865,"ECCENTRICITY":0.00014009,"INCLINATION":87.9158,"RA_OF_ASC_NODE":293.3349,"ARG_OF_PERICENTER":97.9538,"MEAN_ANOMALY":262.1754,"EPHEMERIS_TYPE":0,"CLASSIFICATION_TYPE":"U","NORAD_CAT_ID":56710,"ELEMENT_SET_NO":999,"REV_AT_EPOCH":13701,"BSTAR":0.00074213568,"MEAN_MOTION_DOT":3.15e-6,"MEAN_MOTION_DDOT":0},{"OBJECT_NAME":"ONEWEB-0668","OBJECT_ID":"2023-068B","EPOCH":"2026-03-14T12:12:32.375520","MEAN_MOTION":13.1660313,"ECCENTRICITY":0.00016898,"INCLINATION":87.9027,"RA_OF_ASC_NODE":247.5945,"ARG_OF_PERICENTER":75.8881,"MEAN_ANOMALY":284.2438,"EPHEMERIS_TYPE":0,"CLASSIFICATION_TYPE":"U","NORAD_CAT_ID":56711,"ELEMENT_SET_NO":999,"REV_AT_EPOCH":13932,"BSTAR":0.0027341607,"MEAN_MOTION_DOT":1.058e-5,"MEAN_MOTION_DDOT":0}]
